{
    "currentPageIndex": null,
    "data": [
        {
            "areaCode": "11",
            "areaName": "北京市",
            "areaType": 2,
            "parentCode": "-1",
            "sortOrder": 1
        },
        {
            "areaCode": "12",
            "areaName": "天津市",
            "areaType": 2,
            "parentCode": "0",
            "sortOrder": 1
        },
        {
            "areaCode": "13",
            "areaName": "河北省",
            "areaType": 2,
            "parentCode": "0",
            "sortOrder": 1
        },
        {
            "areaCode": "14",
            "areaName": "山西省",
            "areaType": 2,
            "parentCode": "0",
            "sortOrder": 1
        },
        {
            "areaCode": "15",
            "areaName": "内蒙古自治区",
            "areaType": 2,
            "parentCode": "0",
            "sortOrder": 1
        },
        {
            "areaCode": "21",
            "areaName": "辽宁省",
            "areaType": 2,
            "parentCode": "0",
            "sortOrder": 1
        },
        {
            "areaCode": "22",
            "areaName": "吉林省",
            "areaType": 2,
            "parentCode": "0",
            "sortOrder": 1
        },
        {
            "areaCode": "23",
            "areaName": "黑龙江省",
            "areaType": 2,
            "parentCode": "0",
            "sortOrder": 1
        },
        {
            "areaCode": "31",
            "areaName": "上海市",
            "areaType": 2,
            "parentCode": "0",
            "sortOrder": 1
        },
        {
            "areaCode": "32",
            "areaName": "江苏省",
            "areaType": 2,
            "parentCode": "0",
            "sortOrder": 1
        },
        {
            "areaCode": "33",
            "areaName": "浙江省",
            "areaType": 2,
            "parentCode": "0",
            "sortOrder": 1
        },
        {
            "areaCode": "34",
            "areaName": "安徽省",
            "areaType": 2,
            "parentCode": "0",
            "sortOrder": 1
        },
        {
            "areaCode": "35",
            "areaName": "福建省",
            "areaType": 2,
            "parentCode": "0",
            "sortOrder": 1
        },
        {
            "areaCode": "36",
            "areaName": "江西省",
            "areaType": 2,
            "parentCode": "0",
            "sortOrder": 1
        },
        {
            "areaCode": "37",
            "areaName": "山东省",
            "areaType": 2,
            "parentCode": "0",
            "sortOrder": 1
        },
        {
            "areaCode": "41",
            "areaName": "河南省",
            "areaType": 2,
            "parentCode": "0",
            "sortOrder": 1
        },
        {
            "areaCode": "42",
            "areaName": "湖北省",
            "areaType": 2,
            "parentCode": "0",
            "sortOrder": 1
        },
        {
            "areaCode": "43",
            "areaName": "湖南省",
            "areaType": 2,
            "parentCode": "0",
            "sortOrder": 1
        },
        {
            "areaCode": "44",
            "areaName": "广东省",
            "areaType": 2,
            "parentCode": "0",
            "sortOrder": 1
        },
        {
            "areaCode": "45",
            "areaName": "广西壮族自治区",
            "areaType": 2,
            "parentCode": "0",
            "sortOrder": 1
        },
        {
            "areaCode": "46",
            "areaName": "海南省",
            "areaType": 2,
            "parentCode": "0",
            "sortOrder": 1
        },
        {
            "areaCode": "50",
            "areaName": "重庆市",
            "areaType": 2,
            "parentCode": "0",
            "sortOrder": 1
        },
        {
            "areaCode": "51",
            "areaName": "四川省",
            "areaType": 2,
            "parentCode": "0",
            "sortOrder": 1
        },
        {
            "areaCode": "52",
            "areaName": "贵州省",
            "areaType": 2,
            "parentCode": "0",
            "sortOrder": 1
        },
        {
            "areaCode": "53",
            "areaName": "云南省",
            "areaType": 2,
            "parentCode": "0",
            "sortOrder": 1
        },
        {
            "areaCode": "54",
            "areaName": "西藏自治区",
            "areaType": 2,
            "parentCode": "0",
            "sortOrder": 1
        },
        {
            "areaCode": "61",
            "areaName": "陕西省",
            "areaType": 2,
            "parentCode": "0",
            "sortOrder": 1
        },
        {
            "areaCode": "62",
            "areaName": "甘肃省",
            "areaType": 2,
            "parentCode": "0",
            "sortOrder": 1
        },
        {
            "areaCode": "63",
            "areaName": "青海省",
            "areaType": 2,
            "parentCode": "0",
            "sortOrder": 1
        },
        {
            "areaCode": "64",
            "areaName": "宁夏回族自治区",
            "areaType": 2,
            "parentCode": "0",
            "sortOrder": 1
        },
        {
            "areaCode": "65",
            "areaName": "新疆维吾尔自治区",
            "areaType": 2,
            "parentCode": "0",
            "sortOrder": 1
        }
    ],
    "msg": null,
    "retCode": 200,
    "rows": null,
    "totalPage": null
}
